[{"OBJECT_NAME":"STARLINK-5555","OBJECT_ID":"2023-013BH","EPOCH":"2026-03-09T00:22:07.061664","MEAN_MOTION":15.0252825,"ECCENTRICITY":0.00013572,"INCLINATION":43.0047,"RA_OF_ASC_NODE":316.4977,"ARG_OF_PERICENTER":272.1592,"MEAN_ANOMALY":87.9095,"EPHEMERIS_TYPE":0,"CLASSIFICATION_TYPE":"U","NORAD_CAT_ID":55386,"ELEMENT_SET_NO":999,"REV_AT_EPOCH":17146,"BSTAR":-5.3830101e-5,"MEAN_MOTION_DOT":-9.31e-6,"MEAN_MOTION_DDOT":0},{"OBJECT_NAME":"GEESAT-2 06","OBJECT_ID":"2024-023F","EPOCH":"2026-03-09T23:05:26.548512","MEAN_MOTION":15.0311163,"ECCENTRICITY":0.0006403,"INCLINATION":49.9884,"RA_OF_ASC_NODE":54.2248,"ARG_OF_PERICENTER":18.468,"MEAN_ANOMALY":341.6498,"EPHEMERIS_TYPE":0,"CLASSIFICATION_TYPE":"U","NORAD_CAT_ID":58910,"ELEMENT_SET_NO":999,"REV_AT_EPOCH":11471,"BSTAR":0.00060492991,"MEAN_MOTION_DOT":8.006e-5,"MEAN_MOTION_DDOT":0}]
